STARLINK-2325_new
1 17979C 21024C   21326.18020890 -.00020137  00000-0 -14403-2 0  3260
2 17979  53.0511 111.8897 0002285  93.3587 322.1690 15.03984688    16
STARLINK-2325_old
1 27979C 21024C   21325.09134990  .00001439  00000-0  10293-3 0  3251
2 27979  53.0507 116.7594 0002392  91.0004 185.8809 15.03964955    18
